H1 CPF  1  MCC 2022 10  6 14  7791 larets
H2  0304206 5557    27944 2022 10 05 23 45 00 2022 10 10 23 57 00   180 1 1  0 0 0
H9
10 0 59858 45180.000000 0      6081807.696      3088371.089      1849078.841
10 0 59858 45360.000000 0      6410340.692      2928232.234       533078.377
10 0 59858 45540.000000 0      6500205.512      2656167.705      -802437.480
10 0 59858 45720.000000 0      6345425.866      2288415.771     -2108579.160
10 0 59858 45900.000000 0      5949455.063      1844748.601     -3337558.574
10 0 59858 46080.000000 0      5325108.612      1347490.722     -4444472.299
10 0 59858 46260.000000 0      4494107.149       820445.519     -5388957.000
10 0 59858 46440.000000 0      3486262.695       287792.573     -6136644.884
10 0 59858 46620.000000 0      2338359.762      -226990.071     -6660376.993
10 0 59858 46800.000000 0      1092780.378      -702133.789     -6941141.894
10 0 59858 46980.000000 0      -204067.354     -1118478.972     -6968723.855
10 0 59858 47160.000000 0     -1503468.173     -1460232.891     -6742050.381
10 0 59858 47340.000000 0     -2756208.912     -1715563.360     -6269237.933
10 0 59858 47520.000000 0     -3914425.709     -1877010.524     -5567331.699
10 0 59858 47700.000000 0     -4933434.177     -1941705.497     -4661746.820
10 0 59858 47880.000000 0     -5773487.121     -1911386.834     -3585406.121
10 0 59858 48060.000000 0     -6401382.757     -1792210.160     -2377586.425
10 0 59858 48240.000000 0     -6791848.700     -1594355.312     -1082500.176
10 0 59858 48420.000000 0     -6928626.520     -1331445.666       252340.111
10 0 59858 48600.000000 0     -6805193.805     -1019805.508      1577910.562
10 0 59858 48780.000000 0     -6425076.681      -677594.386      2845536.701
10 0 59858 48960.000000 0     -5801735.301      -323866.701      4008737.892
10 0 59858 49140.000000 0     -4958030.227        22393.979      5024969.992
10 0 59858 49320.000000 0     -3925305.939       343211.780      5857184.783
10 0 59858 49500.000000 0     -2742154.210       622481.907      6475153.372
10 0 59858 49680.000000 0     -1452914.330       846719.126      6856518.477
10 0 59858 49860.000000 0      -105978.061      1005662.830      6987549.141
10 0 59858 50040.000000 0      1248030.533      1092717.939      6863586.613
10 0 59858 50220.000000 0      2558140.722      1105217.782      6489186.860
10 0 59858 50400.000000 0      3774933.995      1044501.808      5877960.018
10 0 59858 50580.000000 0      4852401.160       915805.448      5052106.480
10 0 59858 50760.000000 0      5749693.897       727966.130      4041656.651
10 0 59858 50940.000000 0      6432714.899       492956.264      2883425.243
10 0 59858 51120.000000 0      6875469.494       225262.061      1619694.385
10 0 59858 51300.000000 0      7061114.208       -58867.841       296674.659
10 0 59858 51480.000000 0      6982647.094      -342265.563     -1037206.262
10 0 59858 51660.000000 0      6643194.831      -607738.451     -2333116.660
10 0 59858 51840.000000 0      6055877.457      -838967.068     -3543650.855
10 0 59858 52020.000000 0      5243261.529     -1021359.413     -4624593.098
10 0 59858 52200.000000 0      4236434.928     -1142815.090     -5536539.582
10 0 59858 52380.000000 0      3073758.870     -1194363.922     -6246315.981
10 0 59858 52560.000000 0      1799358.973     -1170652.832     -6728145.272
10 0 59858 52740.000000 0       461426.722     -1070256.848     -6964535.678
10 0 59858 52920.000000 0      -889602.707      -895808.177     -6946875.542
10 0 59858 53100.000000 0     -2202935.172      -653937.231     -6675728.200
10 0 59858 53280.000000 0     -3429308.279      -355026.268     -6160822.098
10 0 59858 53460.000000 0     -4522827.379       -12783.213     -5420736.931
10 0 59858 53640.000000 0     -5442699.221       356351.531     -4482289.988
10 0 59858 53820.000000 0     -6154799.798       733945.574     -3379621.806
10 0 59858 54000.000000 0     -6633012.658      1100437.717     -2152994.972
10 0 59858 54180.000000 0     -6860266.037      1436084.612      -847333.887
10 0 59858 54360.000000 0     -6829211.916      1721944.272       489445.081
10 0 59858 54540.000000 0     -6542495.715      1940842.536      1808244.402
10 0 59858 54720.000000 0     -6012603.634      2078273.738      3060647.295
10 0 59858 54900.000000 0     -5261294.670      2123185.074      4200750.433
10 0 59858 55080.000000 0     -4318648.153      2068600.059      5186877.765
10 0 59858 55260.000000 0     -3221790.865      1912054.357      5983100.369
10 0 59858 55440.000000 0     -2013375.476      1655828.294      6560516.835
10 0 59858 55620.000000 0      -739875.602      1306966.301      6898254.946
10 0 59858 55800.000000 0       550220.534       877084.532      6984167.259
10 0 59858 55980.000000 0      1808246.620       381978.548      6815223.501
10 0 59858 56160.000000 0      2987173.299      -158955.525      6397600.874
10 0 59858 56340.000000 0      4043350.366      -723470.380      5746472.353
10 0 59858 56520.000000 0      4938124.311     -1287365.209      4885490.162
10 0 59858 56700.000000 0      5639274.659     -1825501.919      3845972.567
10 0 59858 56880.000000 0      6122218.146     -2312901.204      2665806.743
10 0 59858 57060.000000 0      6370923.824     -2725874.505      1388090.656
10 0 59858 57240.000000 0      6378491.567     -3043136.523        59558.873
10 0 59858 57420.000000 0      6147360.759     -3246842.797     -1271152.598
10 0 59858 57600.000000 0      5689129.574     -3323495.360     -2555329.542
10 0 59858 57780.000000 0      5023991.089     -3264666.460     -3746003.976
10 0 59858 57960.000000 0      4179823.681     -3067505.833     -4799698.026
10 0 59858 58140.000000 0      3190982.896     -2735008.108     -5678015.584
10 0 59858 58320.000000 0      2096861.542     -2276027.794     -6349015.867
10 0 59858 58500.000000 0       940297.139     -1705051.239     -6788333.180
10 0 59858 58680.000000 0      -234115.156     -1041731.369     -6980018.544
10 0 59858 58860.000000 0     -1381735.013      -310207.712     -6917078.755
10 0 59858 59040.000000 0     -2459556.102       461763.959     -6601715.547
10 0 59858 59220.000000 0     -3427802.883      1243849.632     -6045260.471
10 0 59858 59400.000000 0     -4251396.259      2004311.120     -5267809.899
10 0 59858 59580.000000 0     -4901250.454      2711282.993     -4297558.661
10 0 59858 59760.000000 0     -5355346.831      3334108.628     -3169829.129
10 0 59858 59940.000000 0     -5599535.211      3844675.235     -1925820.383
10 0 59858 60120.000000 0     -5628023.472      4218690.069      -611109.443
10 0 59858 60300.000000 0     -5443521.703      4436828.271       726046.039
10 0 59858 60480.000000 0     -5057024.553      4485689.150      2036533.802
10 0 59858 60660.000000 0     -4487235.095      4358501.867      3272254.042
10 0 59858 60840.000000 0     -3759666.283      4055547.795      4387934.246
10 0 59858 61020.000000 0     -2905474.266      3584279.124      5342812.800
10 0 59858 61200.000000 0     -1960089.043      2959133.008      6102123.080
10 0 59858 61380.000000 0      -961711.552      2201056.667      6638325.228
10 0 59858 61560.000000 0        50247.784      1336770.323      6932048.932
10 0 59858 61740.000000 0      1036720.111       397805.413      6972737.985
10 0 59858 61920.000000 0      1960471.940      -580647.749      6758991.920
10 0 59858 62100.000000 0      2787493.256     -1561047.699      6298604.091
10 0 59858 62280.000000 0      3488241.289     -2504927.987      5608295.915
10 0 59858 62460.000000 0      4038702.649     -3374397.041      4713147.299
10 0 59858 62640.000000 0      4421235.297     -4133660.806      3645731.470
10 0 59858 62820.000000 0      4625158.742     -4750511.355      2444968.693
10 0 59858 63000.000000 0      4647063.838     -5197714.115      1154725.453
10 0 59858 63180.000000 0      4490820.460     -5454223.902      -177795.255
10 0 59858 63360.000000 0      4167279.209     -5506166.300     -1503807.911
10 0 59858 63540.000000 0      3693681.915     -5347532.243     -2774772.141
10 0 59858 63720.000000 0      3092805.986     -4980543.861     -3944210.502
10 0 59858 63900.000000 0      2391890.637     -4415675.292     -4969433.685
10 0 59858 64080.000000 0      1621401.887     -3671331.152     -5813098.426
10 0 59858 64260.000000 0       813706.328     -2773206.061     -6444537.484
10 0 59858 64440.000000 0         1713.715     -1753365.464     -6840830.638
10 0 59858 64620.000000 0      -782455.658      -649080.611     -6987590.510
10 0 59858 64800.000000 0     -1508725.065       498534.804     -6879449.040
10 0 59858 64980.000000 0     -2150201.818      1646039.125     -6520242.129
10 0 59858 65160.000000 0     -2684166.857      2749285.804     -5922892.320
10 0 59858 65340.000000 0     -3092885.991      3765110.271     -5108991.292
10 0 59858 65520.000000 0     -3364218.347      4653030.455     -4108078.304
10 0 59858 65700.000000 0     -3491994.615      5376893.779     -2956615.346
10 0 59858 65880.000000 0     -3476141.426      5906393.494     -1696687.285
10 0 59858 66060.000000 0     -3322548.226      6218390.275      -374466.972
10 0 59858 66240.000000 0     -3042673.522      6297962.469       961507.635
10 0 59858 66420.000000 0     -2652911.091      6139124.686      2262170.849
10 0 59858 66600.000000 0     -2173735.167      5745163.157      3479799.087
10 0 59858 66780.000000 0     -1628680.855      5128570.419      4569807.184
10 0 59858 66960.000000 0     -1043221.432      4310599.687      5492398.229
10 0 59858 67140.000000 0      -443596.079      3320465.970      6214004.533
10 0 59858 67320.000000 0       144349.152      2194239.829      6708468.881
10 0 59858 67500.000000 0       696256.740       973490.407      6957938.522
10 0 59858 67680.000000 0      1190248.785      -296266.392      6953458.189
10 0 59858 67860.000000 0      1607778.717     -1567258.073      6695258.231
10 0 59858 68040.000000 0      1934318.533     -2791236.822      6192740.005
99
